[{"OBJECT_NAME":"NIGERIASAT-X","OBJECT_ID":"2011-044C","EPOCH":"2026-03-09T22:53:29.882112","MEAN_MOTION":14.60784169,"ECCENTRICITY":0.00109862,"INCLINATION":97.8486,"RA_OF_ASC_NODE":58.2104,"ARG_OF_PERICENTER":290.128,"MEAN_ANOMALY":69.8739,"EPHEMERIS_TYPE":0,"CLASSIFICATION_TYPE":"U","NORAD_CAT_ID":37790,"ELEMENT_SET_NO":999,"REV_AT_EPOCH":77568,"BSTAR":0.00013273197,"MEAN_MOTION_DOT":6.05e-6,"MEAN_MOTION_DDOT":0},{"OBJECT_NAME":"SL-12 DEB","OBJECT_ID":"1985-042H","EPOCH":"2026-03-09T21:13:50.712672","MEAN_MOTION":14.61236933,"ECCENTRICITY":0.00054203,"INCLINATION":66.5753,"RA_OF_ASC_NODE":316.8552,"ARG_OF_PERICENTER":237.9381,"MEAN_ANOMALY":122.1206,"EPHEMERIS_TYPE":0,"CLASSIFICATION_TYPE":"U","NORAD_CAT_ID":18765,"ELEMENT_SET_NO":999,"REV_AT_EPOCH":76,"BSTAR":0.00077282505,"MEAN_MOTION_DOT":3.721e-5,"MEAN_MOTION_DDOT":0}]
